[{"OBJECT_NAME":"STARLINK-3056","OBJECT_ID":"2021-082AF","EPOCH":"2026-03-09T21:20:27.846816","MEAN_MOTION":14.98317734,"ECCENTRICITY":0.00029466,"INCLINATION":69.998,"RA_OF_ASC_NODE":293.9534,"ARG_OF_PERICENTER":270.2418,"MEAN_ANOMALY":89.8404,"EPHEMERIS_TYPE":0,"CLASSIFICATION_TYPE":"U","NORAD_CAT_ID":49159,"ELEMENT_SET_NO":999,"REV_AT_EPOCH":24710,"BSTAR":9.1259836e-5,"MEAN_MOTION_DOT":9.96e-6,"MEAN_MOTION_DDOT":0},{"OBJECT_NAME":"CZ-4B DEB","OBJECT_ID":"2006-015F","EPOCH":"2026-03-09T03:45:22.603968","MEAN_MOTION":14.99561687,"ECCENTRICITY":0.00700337,"INCLINATION":97.7654,"RA_OF_ASC_NODE":137.4599,"ARG_OF_PERICENTER":35.4601,"MEAN_ANOMALY":355.3004,"EPHEMERIS_TYPE":0,"CLASSIFICATION_TYPE":"U","NORAD_CAT_ID":29539,"ELEMENT_SET_NO":999,"REV_AT_EPOCH":5458,"BSTAR":0.0013707202,"MEAN_MOTION_DOT":0.00017712,"MEAN_MOTION_DDOT":0}]
